COSMOS 2345             
1 24894U 97041A   26062.55049365 -.00000056  00000+0  00000+0 0  9991
2 24894  14.3954 358.5684 0165667 297.6001 243.0998  1.00310556104595
SL-12 R/B(2)            
1 24897U 97041D   26062.00104535  .00000011  00000+0  00000+0 0  9995
2 24897  14.5045 358.9375 0358969 299.2154 248.2802  1.00005611104299
SL-12 R/B(2)            
1 24919U 97046D   26062.70710804 -.00000081  00000+0  00000+0 0  9992
2 24919  12.8212 126.8413 4822432 352.0444 195.2228  1.79818086187244
AMC-3                   
1 24936U 97050A   26062.50083340 -.00000273  00000+0  00000+0 0  9995
2 24936   7.8875  65.2838 0003457 286.2963 277.9753  1.00271903 51377
ATLAS 2AS CENTAUR R/B   
1 24937U 97050B   26061.21586026  .00000486  00000+0  54217-3 0  9990
2 24937  19.2516 350.8710 7277040 253.6163  21.5150  2.24962252212641
TITAN 3C TRANSTAGE DEB  
1 25000U 68081G   26062.71600618 -.00000101  00000+0  00000+0 0  9996
2 25000   1.7083  40.5466 0114797 290.3545 144.5855  1.01037202124252
TITAN 3C TRANSTAGE DEB  
1 25001U 68081H   26062.70147468 -.00000085  00000+0  00000+0 0  9996
2 25001   1.8124  50.4461 0068605 349.2489 235.3917  1.01694289117245
USA 134                 
1 25019U 97065A   26062.43794888 -.00000073  00000+0  00000+0 0  9990
2 25019  12.6592  22.5055 0007015 305.9393 238.3125  1.00271081 31893
IABS R/B                
1 25021U 97065C   26061.92749490  .00000019  00000+0  00000+0 0  9994
2 25021  14.1968 352.9461 0044800 205.6786 334.9342  1.01053765105429
KUPON                   
1 25045U 97070A   26062.28692004 -.00000268  00000+0  00000+0 0  9991
2 25045  14.5606 355.4393 0005922 306.7298  53.2238  1.00288030103587
SL-12 R/B(2)            
1 25048U 97070D   26062.69697479 -.00000360  00000+0  00000+0 0  9993
2 25048  14.7466 355.0525 0013687 165.5197  26.2018  0.99640665102976
INDOSTAR 1              
1 25050U 97071B   26062.52128685  .00000119  00000+0  00000+0 0  9998
2 25050  12.8357  20.8205 0004918 299.1301  59.6404  1.00267187103738
EQUATOR S               
1 25068U 97075B   26061.48588886 -.00000201  00000+0  39573-2 0  9991
2 25068   5.3427 262.8607 8245000 321.8179   1.8366  1.07775959111316
SL-12 R/B(2)            
1 25074U 97076D   26062.55778056 -.00000114  00000+0  00000+0 0  9991
2 25074  13.8080  22.7877 4364903  33.2895 139.2517  1.71946897177388
GALAXY 8 (G-8)          
1 25086U 97078A   26062.62075262 -.00000140  00000+0  00000+0 0  9992
2 25086  13.9798  10.6762 0006772  18.0321  86.8594  0.99695164102898
INTELSAT 804 (IS-804)   
1 25110U 97083A   26062.32212273 -.00000073  00000+0  00000+0 0  9993
2 25110  13.0446  18.4142 0008758   8.8875  57.7063  1.00259973103270
HGS 1 (ASIASAT 3)       
1 25126U 97086A   26062.79195515 -.00000285  00000+0  00000+0 0  9998
2 25126  12.9995  32.7222 0048206  42.1425 329.6782  1.00310234104083
