[{"OBJECT_NAME":"COSMOS 2345","OBJECT_ID":"1997-041A","EPOCH":"2026-03-03T13:12:42.651360","MEAN_MOTION":1.00310556,"ECCENTRICITY":0.0165667,"INCLINATION":14.3954,"RA_OF_ASC_NODE":358.5684,"ARG_OF_PERICENTER":297.6001,"MEAN_ANOMALY":243.0998,"EPHEMERIS_TYPE":0,"CLASSIFICATION_TYPE":"U","NORAD_CAT_ID":24894,"ELEMENT_SET_NO":999,"REV_AT_EPOCH":10459,"BSTAR":0,"MEAN_MOTION_DOT":-5.6e-7,"MEAN_MOTION_DDOT":0},{"OBJECT_NAME":"SL-12 R/B(2)","OBJECT_ID":"1997-041D","EPOCH":"2026-03-03T00:01:30.318240","MEAN_MOTION":1.00005611,"ECCENTRICITY":0.0358969,"INCLINATION":14.5045,"RA_OF_ASC_NODE":358.9375,"ARG_OF_PERICENTER":299.2154,"MEAN_ANOMALY":248.2802,"EPHEMERIS_TYPE":0,"CLASSIFICATION_TYPE":"U","NORAD_CAT_ID":24897,"ELEMENT_SET_NO":999,"REV_AT_EPOCH":10429,"BSTAR":0,"MEAN_MOTION_DOT":1.1e-7,"MEAN_MOTION_DDOT":0},{"OBJECT_NAME":"SL-12 R/B(2)","OBJECT_ID":"1997-046D","EPOCH":"2026-03-03T16:58:14.134656","MEAN_MOTION":1.79818086,"ECCENTRICITY":0.4822432,"INCLINATION":12.8212,"RA_OF_ASC_NODE":126.8413,"ARG_OF_PERICENTER":352.0444,"MEAN_ANOMALY":195.2228,"EPHEMERIS_TYPE":0,"CLASSIFICATION_TYPE":"U","NORAD_CAT_ID":24919,"ELEMENT_SET_NO":999,"REV_AT_EPOCH":18724,"BSTAR":0,"MEAN_MOTION_DOT":-8.1e-7,"MEAN_MOTION_DDOT":0},{"OBJECT_NAME":"AMC-3","OBJECT_ID":"1997-050A","EPOCH":"2026-03-03T12:01:12.005760","MEAN_MOTION":1.00271903,"ECCENTRICITY":0.0003457,"INCLINATION":7.8875,"RA_OF_ASC_NODE":65.2838,"ARG_OF_PERICENTER":286.2963,"MEAN_ANOMALY":277.9753,"EPHEMERIS_TYPE":0,"CLASSIFICATION_TYPE":"U","NORAD_CAT_ID":24936,"ELEMENT_SET_NO":999,"REV_AT_EPOCH":5137,"BSTAR":0,"MEAN_MOTION_DOT":-2.73e-6,"MEAN_MOTION_DDOT":0},{"OBJECT_NAME":"ATLAS 2AS CENTAUR R/B","OBJECT_ID":"1997-050B","EPOCH":"2026-03-02T05:10:50.326464","MEAN_MOTION":2.24962252,"ECCENTRICITY":0.727704,"INCLINATION":19.2516,"RA_OF_ASC_NODE":350.871,"ARG_OF_PERICENTER":253.6163,"MEAN_ANOMALY":21.515,"EPHEMERIS_TYPE":0,"CLASSIFICATION_TYPE":"U","NORAD_CAT_ID":24937,"ELEMENT_SET_NO":999,"REV_AT_EPOCH":21264,"BSTAR":0.00054217,"MEAN_MOTION_DOT":4.86e-6,"MEAN_MOTION_DDOT":0},{"OBJECT_NAME":"TITAN 3C TRANSTAGE DEB","OBJECT_ID":"1968-081G","EPOCH":"2026-03-03T17:11:02.933952","MEAN_MOTION":1.01037202,"ECCENTRICITY":0.0114797,"INCLINATION":1.7083,"RA_OF_ASC_NODE":40.5466,"ARG_OF_PERICENTER":290.3545,"MEAN_ANOMALY":144.5855,"EPHEMERIS_TYPE":0,"CLASSIFICATION_TYPE":"U","NORAD_CAT_ID":25000,"ELEMENT_SET_NO":999,"REV_AT_EPOCH":12425,"BSTAR":0,"MEAN_MOTION_DOT":-1.01e-6,"MEAN_MOTION_DDOT":0},{"OBJECT_NAME":"TITAN 3C TRANSTAGE DEB","OBJECT_ID":"1968-081H","EPOCH":"2026-03-03T16:50:07.412352","MEAN_MOTION":1.01694289,"ECCENTRICITY":0.0068605,"INCLINATION":1.8124,"RA_OF_ASC_NODE":50.4461,"ARG_OF_PERICENTER":349.2489,"MEAN_ANOMALY":235.3917,"EPHEMERIS_TYPE":0,"CLASSIFICATION_TYPE":"U","NORAD_CAT_ID":25001,"ELEMENT_SET_NO":999,"REV_AT_EPOCH":11724,"BSTAR":0,"MEAN_MOTION_DOT":-8.5e-7,"MEAN_MOTION_DDOT":0},{"OBJECT_NAME":"USA 134","OBJECT_ID":"1997-065A","EPOCH":"2026-03-03T10:30:38.783232","MEAN_MOTION":1.00271081,"ECCENTRICITY":0.00070153,"INCLINATION":12.6592,"RA_OF_ASC_NODE":22.5055,"ARG_OF_PERICENTER":305.9393,"MEAN_ANOMALY":238.3125,"EPHEMERIS_TYPE":0,"CLASSIFICATION_TYPE":"U","NORAD_CAT_ID":25019,"ELEMENT_SET_NO":999,"REV_AT_EPOCH":3189,"BSTAR":0,"MEAN_MOTION_DOT":-7.3e-7,"MEAN_MOTION_DDOT":0},{"OBJECT_NAME":"IABS R/B","OBJECT_ID":"1997-065C","EPOCH":"2026-03-02T22:15:35.559360","MEAN_MOTION":1.01053765,"ECCENTRICITY":0.00448,"INCLINATION":14.1968,"RA_OF_ASC_NODE":352.9461,"ARG_OF_PERICENTER":205.6786,"MEAN_ANOMALY":334.9342,"EPHEMERIS_TYPE":0,"CLASSIFICATION_TYPE":"U","NORAD_CAT_ID":25021,"ELEMENT_SET_NO":999,"REV_AT_EPOCH":10542,"BSTAR":0,"MEAN_MOTION_DOT":1.9e-7,"MEAN_MOTION_DDOT":0},{"OBJECT_NAME":"KUPON","OBJECT_ID":"1997-070A","EPOCH":"2026-03-03T06:53:09.891456","MEAN_MOTION":1.0028803,"ECCENTRICITY":0.0005922,"INCLINATION":14.5606,"RA_OF_ASC_NODE":355.4393,"ARG_OF_PERICENTER":306.7298,"MEAN_ANOMALY":53.2238,"EPHEMERIS_TYPE":0,"CLASSIFICATION_TYPE":"U","NORAD_CAT_ID":25045,"ELEMENT_SET_NO":999,"REV_AT_EPOCH":10358,"BSTAR":0,"MEAN_MOTION_DOT":-2.68e-6,"MEAN_MOTION_DDOT":0},{"OBJECT_NAME":"SL-12 R/B(2)","OBJECT_ID":"1997-070D","EPOCH":"2026-03-03T16:43:38.621856","MEAN_MOTION":0.99640665,"ECCENTRICITY":0.0013687,"INCLINATION":14.7466,"RA_OF_ASC_NODE":355.0525,"ARG_OF_PERICENTER":165.5197,"MEAN_ANOMALY":26.2018,"EPHEMERIS_TYPE":0,"CLASSIFICATION_TYPE":"U","NORAD_CAT_ID":25048,"ELEMENT_SET_NO":999,"REV_AT_EPOCH":10297,"BSTAR":0,"MEAN_MOTION_DOT":-3.6e-6,"MEAN_MOTION_DDOT":0},{"OBJECT_NAME":"INDOSTAR 1","OBJECT_ID":"1997-071B","EPOCH":"2026-03-03T12:30:39.183840","MEAN_MOTION":1.00267187,"ECCENTRICITY":0.0004918,"INCLINATION":12.8357,"RA_OF_ASC_NODE":20.8205,"ARG_OF_PERICENTER":299.1301,"MEAN_ANOMALY":59.6404,"EPHEMERIS_TYPE":0,"CLASSIFICATION_TYPE":"U","NORAD_CAT_ID":25050,"ELEMENT_SET_NO":999,"REV_AT_EPOCH":10373,"BSTAR":0,"MEAN_MOTION_DOT":1.19e-6,"MEAN_MOTION_DDOT":0},{"OBJECT_NAME":"EQUATOR S","OBJECT_ID":"1997-075B","EPOCH":"2026-03-02T11:39:40.797504","MEAN_MOTION":1.07775959,"ECCENTRICITY":0.82450001,"INCLINATION":5.3427,"RA_OF_ASC_NODE":262.8607,"ARG_OF_PERICENTER":321.8179,"MEAN_ANOMALY":1.8366,"EPHEMERIS_TYPE":0,"CLASSIFICATION_TYPE":"U","NORAD_CAT_ID":25068,"ELEMENT_SET_NO":999,"REV_AT_EPOCH":11131,"BSTAR":0.0039572841,"MEAN_MOTION_DOT":-2.01e-6,"MEAN_MOTION_DDOT":0},{"OBJECT_NAME":"SL-12 R/B(2)","OBJECT_ID":"1997-076D","EPOCH":"2026-03-03T13:23:12.240384","MEAN_MOTION":1.71946897,"ECCENTRICITY":0.4364903,"INCLINATION":13.808,"RA_OF_ASC_NODE":22.7877,"ARG_OF_PERICENTER":33.2895,"MEAN_ANOMALY":139.2517,"EPHEMERIS_TYPE":0,"CLASSIFICATION_TYPE":"U","NORAD_CAT_ID":25074,"ELEMENT_SET_NO":999,"REV_AT_EPOCH":17738,"BSTAR":0,"MEAN_MOTION_DOT":-1.14e-6,"MEAN_MOTION_DDOT":0},{"OBJECT_NAME":"GALAXY 8 (G-8)","OBJECT_ID":"1997-078A","EPOCH":"2026-03-03T14:53:53.026368","MEAN_MOTION":0.99695164,"ECCENTRICITY":0.0006772,"INCLINATION":13.9798,"RA_OF_ASC_NODE":10.6762,"ARG_OF_PERICENTER":18.0321,"MEAN_ANOMALY":86.8594,"EPHEMERIS_TYPE":0,"CLASSIFICATION_TYPE":"U","NORAD_CAT_ID":25086,"ELEMENT_SET_NO":999,"REV_AT_EPOCH":10289,"BSTAR":0,"MEAN_MOTION_DOT":-1.4e-6,"MEAN_MOTION_DDOT":0},{"OBJECT_NAME":"INTELSAT 804 (IS-804)","OBJECT_ID":"1997-083A","EPOCH":"2026-03-03T07:43:51.403872","MEAN_MOTION":1.00259973,"ECCENTRICITY":0.00087581,"INCLINATION":13.0446,"RA_OF_ASC_NODE":18.4142,"ARG_OF_PERICENTER":8.8875,"MEAN_ANOMALY":57.7063,"EPHEMERIS_TYPE":0,"CLASSIFICATION_TYPE":"U","NORAD_CAT_ID":25110,"ELEMENT_SET_NO":999,"REV_AT_EPOCH":10327,"BSTAR":0,"MEAN_MOTION_DOT":-7.3e-7,"MEAN_MOTION_DDOT":0},{"OBJECT_NAME":"HGS 1 (ASIASAT 3)","OBJECT_ID":"1997-086A","EPOCH":"2026-03-03T19:00:24.924960","MEAN_MOTION":1.00310234,"ECCENTRICITY":0.0048206,"INCLINATION":12.9995,"RA_OF_ASC_NODE":32.7222,"ARG_OF_PERICENTER":42.1425,"MEAN_ANOMALY":329.6782,"EPHEMERIS_TYPE":0,"CLASSIFICATION_TYPE":"U","NORAD_CAT_ID":25126,"ELEMENT_SET_NO":999,"REV_AT_EPOCH":10408,"BSTAR":0,"MEAN_MOTION_DOT":-2.85e-6,"MEAN_MOTION_DDOT":0}]
